STARLINK-37189          
1 68603U 26073B   26106.93383638  .00145944  00000+0  74867-3 0  9990
2 68603  97.2849 304.5446 0001306  98.2355 261.9061 15.80854689  1574
