{
  "norad_id": 68603,
  "name": "STARLINK-37189",
  "history": [
    {
      "epoch": "2026-04-16T22:24:43.463232Z",
      "apogee_km": 328.8986492246313,
      "perigee_km": 327.1461956443618,
      "latitude_deg": -3.953653947953553e-05,
      "longitude_deg": 123.28907875337369,
      "height_km": 331.32183263548166,
      "semi_major_axis_km": 6706.159422434496,
      "eccentricity": 0.00013066,
      "inclination_deg": 97.2849,
      "raan_deg": 304.5446,
      "arg_perigee_deg": 98.2355,
      "mean_anomaly_deg": 261.9061,
      "mean_motion_rev_day": 15.80854689
    }
  ]
}